NORAD_CAT_ID,OBJECT_NAME,OBJECT_TYPE,EPOCH,MEAN_MOTION,ECCENTRICITY,INCLINATION,RA_OF_ASC_NODE,ARG_OF_PERICENTER,MEAN_ANOMALY,BSTAR,MEAN_MOTION_DOT,MEAN_MOTION_DDOT,TLE_LINE0,TLE_LINE1,TLE_LINE2,SEMIMAJOR_AXIS,PERIOD,APOGEE,PERIGEE,DECAYED
53893.0,STARLINK-5052,PAYLOAD,2023-03-14 13:44:50,15.08849226,9.64e-05,53.2172,182.2872,85.3916,274.7187,0.00010722,1.419e-05,0.0,0 STARLINK-5052,1 53893U 22119H   23073.57280209  .00001419  00000-0  10722-3 0  9991,2 53893  53.2172 182.2872 0000964  85.3916 274.7187 15.08849226 26965,6917.852,95.437,540.384,539.05,0.0
53893.0,STARLINK-5052,PAYLOAD,2023-03-15 12:00:12,15.08867238,0.0001065,53.2163,178.1246,74.4251,285.6858,0.00039782,6.054e-05,0.0,0 STARLINK-5052,1 53893U 22119H   23074.50014803  .00006054  00000-0  39782-3 0  9997,2 53893  53.2163 178.1246 0001065  74.4251 285.6858 15.08867238 26686,6917.797,95.436,540.399,538.925,0.0
53893.0,STARLINK-5052,PAYLOAD,2023-03-16 10:15:37,15.08835253,0.0001087,53.2165,173.9607,98.0346,262.0769,1.1547e-06,-2.69e-06,0.0,0 STARLINK-5052,1 53893U 22119H   23075.42752084 -.00000269  00000-0  11547-5 0  9993,2 53893  53.2165 173.9607 0001087  98.0346 262.0769 15.08835253 26821,6917.895,95.438,540.512,539.008,0.0
53893.0,STARLINK-5052,PAYLOAD,2023-03-17 03:44:53,15.08826384,0.0001281,53.216,170.6906,93.43,266.6838,-0.00013576,-2.447e-05,0.0,0 STARLINK-5052,1 53893U 22119H   23076.15617825 -.00002447  00000-0 -13576-3 0  9990,2 53893  53.2160 170.6906 0001281  93.4300 266.6838 15.08826384 26931,6917.922,95.438,540.673,538.901,0.0
53893.0,STARLINK-5052,PAYLOAD,2023-03-17 13:17:12,15.08825752,0.0001183,53.2166,168.9089,70.9427,289.1694,-0.00014281,-2.559e-05,0.0,0 STARLINK-5052,1 53893U 22119H   23076.55362256 -.00002559  00000-0 -14281-3 0  9997,2 53893  53.2166 168.9089 0001183  70.9427 289.1694 15.08825752 27412,6917.924,95.438,540.607,538.971,0.0
53893.0,STARLINK-5052,PAYLOAD,2023-03-18 02:00:17,15.08832587,0.0001001,53.2165,166.5279,93.1672,266.9434,0.00018357,2.634e-05,0.0,0 STARLINK-5052,1 53893U 22119H   23077.08353097  .00002634  00000-0  18357-3 0  9999,2 53893  53.2165 166.5279 0001001  93.1672 266.9434 15.08832587 27075,6917.903,95.438,540.461,539.076,0.0
53893.0,STARLINK-5052,PAYLOAD,2023-03-18 09:57:12,15.08848875,0.0001024,53.216,165.042,94.4544,265.6565,0.00047344,7.257e-05,0.0,0 STARLINK-5052,1 53893U 22119H   23077.41472763  .00007257  00000-0  47344-3 0  9992,2 53893  53.2160 165.0420 0001024  94.4544 265.6565 15.08848875 27123,6917.853,95.437,540.427,539.01,0.0
53893.0,STARLINK-5052,PAYLOAD,2023-03-18 13:07:58,15.08856291,0.0001025,53.2159,164.4473,92.8242,267.2867,0.00056804,8.768e-05,0.0,0 STARLINK-5052,1 53893U 22119H   23077.54720414  .00008768  00000-0  56804-3 0  9994,2 53893  53.2159 164.4473 0001025  92.8242 267.2867 15.08856291 27562,6917.831,95.437,540.405,538.987,0.0
53893.0,STARLINK-5052,PAYLOAD,2023-03-18 22:40:17,15.08845915,9.96e-05,53.2162,162.6627,105.6439,254.4663,0.00047473,7.277e-05,0.0,0 STARLINK-5052,1 53893U 22119H   23077.94464719  .00007277  00000-0  47473-3 0  9997,2 53893  53.2162 162.6627 0000996 105.6439 254.4663 15.08845915 27208,6917.862,95.437,540.416,539.038,0.0
53893.0,STARLINK-5052,PAYLOAD,2023-03-19 12:58:45,15.08847135,0.0001251,53.216,159.9867,98.6492,261.4642,0.00034258,5.17e-05,0.0,0 STARLINK-5052,1 53893U 22119H   23078.54080856  .00005170  00000-0  34258-3 0  9997,2 53893  53.2160 159.9867 0001251  98.6492 261.4642 15.08847135 27713,6917.859,95.437,540.589,538.858,0.0
53893.0,STARLINK-5052,PAYLOAD,2023-03-20 04:52:37,15.08839702,0.0001616,53.2157,157.0147,84.3936,275.7241,-0.00010426,-1.947e-05,0.0,0 STARLINK-5052,1 53893U 22119H   23079.20321047 -.00001947  00000-0 -10426-3 0  9992,2 53893  53.2157 157.0147 0001616  84.3936 275.7241 15.08839702 27397,6917.881,95.438,540.864,538.628,0.0
53893.0,STARLINK-5052,PAYLOAD,2023-03-20 11:14:10,15.08830831,0.0001451,53.215,155.8233,89.1954,270.9204,-0.0002157,-3.718e-05,0.0,0 STARLINK-5052,1 53893U 22119H   23079.46817443 -.00003718  00000-0 -21570-3 0  9990,2 53893  53.2150 155.8233 0001451  89.1954 270.9204 15.08830831 27853,6917.908,95.438,540.777,538.77,0.0
53893.0,STARLINK-5052,PAYLOAD,2023-03-21 04:43:24,15.08842011,0.0001271,53.2158,152.553,90.404,269.7098,0.00030316,4.54e-05,0.0,0 STARLINK-5052,1 53893U 22119H   23080.19681402  .00004540  00000-0  30316-3 0  9996,2 53893  53.2158 152.5530 0001271  90.4040 269.7098 15.08842011 27542,6917.874,95.437,540.619,538.86,0.0
53893.0,STARLINK-5052,PAYLOAD,2023-03-21 11:04:57,15.0885155,0.0001377,53.2152,151.364,84.5128,275.6021,0.00079428,0.0001238,0.0,0 STARLINK-5052,1 53893U 22119H   23080.46177395  .00012380  00000-0  79428-3 0  9995,2 53893  53.2152 151.3640 0001377  84.5128 275.6021 15.08851550 28005,6917.845,95.437,540.663,538.757,0.0
53893.0,STARLINK-5052,PAYLOAD,2023-03-22 10:55:43,15.08851069,0.0001321,53.2154,146.9032,84.7534,275.3609,0.00048215,7.396e-05,0.0,0 STARLINK-5052,1 53893U 22119H   23081.45537028  .00007396  00000-0  48215-3 0  9999,2 53893  53.2154 146.9032 0001321  84.7534 275.3609 15.08851069 27737,6917.847,95.437,540.625,538.798,0.0
53893.0,STARLINK-5052,PAYLOAD,2023-03-23 10:46:30,15.08850443,0.0001311,53.2152,142.4416,90.5175,269.5967,0.00045277,6.927e-05,0.0,0 STARLINK-5052,1 53893U 22119H   23082.44896878  .00006927  00000-0  45277-3 0  9994,2 53893  53.2152 142.4416 0001311  90.5175 269.5967 15.08850443 27880,6917.848,95.437,540.62,538.807,0.0
53893.0,STARLINK-5052,PAYLOAD,2023-03-23 20:18:49,15.0885228,0.0001395,53.216,140.6563,80.4557,279.6593,0.00039377,5.987e-05,0.0,0 STARLINK-5052,1 53893U 22119H   23082.84640716  .00005987  00000-0  39377-3 0  9995,2 53893  53.2160 140.6563 0001395  80.4557 279.6593 15.08852280 28368,6917.843,95.437,540.673,538.743,0.0
53893.0,STARLINK-5052,PAYLOAD,2023-03-24 09:01:53,15.08907015,0.0001424,53.2155,138.2799,99.0593,261.056,0.0021127,0.00033558,0.0,0 STARLINK-5052,1 53893U 22119H   23083.37631287  .00033558  00000-0  21127-2 0  9995,2 53893  53.2155 138.2799 0001424  99.0593 261.0560 15.08907015 28024,6917.676,95.433,540.526,538.555,0.0
53893.0,STARLINK-5052,PAYLOAD,2023-03-24 20:09:35,15.08864242,0.0001476,53.2155,136.1983,70.6799,289.4352,0.00028664,4.28e-05,0.0,0 STARLINK-5052,1 53893U 22119H   23083.83999234  .00004280  00000-0  28664-3 0  9999,2 53893  53.2155 136.1983 0001476  70.6799 289.4352 15.08864242 28090,6917.806,95.436,540.692,538.65,0.0
53893.0,STARLINK-5052,PAYLOAD,2023-03-25 04:06:31,15.08812465,9.83e-05,53.2156,134.7118,108.8028,251.307,-0.0011176,-0.00018017,0.0,0 STARLINK-5052,1 53893U 22119H   23084.17120057 -.00018017  00000-0 -11176-2 0  9990,2 53893  53.2156 134.7118 0000983 108.8028 251.3070 15.08812465 28147,6917.965,95.439,540.51,539.15,0.0
53893.0,STARLINK-5052,PAYLOAD,2023-03-25 20:00:23,15.0882438,7.26e-05,53.2159,131.7391,87.4686,272.6389,-0.000152,-2.705e-05,0.0,0 STARLINK-5052,1 53893U 22119H   23084.83361037 -.00002705  00000-0 -15200-3 0  9998,2 53893  53.2159 131.7391 0000726  87.4686 272.6389 15.08824380 28246,6917.928,95.439,540.295,539.291,0.0
53893.0,STARLINK-5052,PAYLOAD,2023-03-25 23:11:09,15.08864742,9.78e-05,53.2155,131.1447,79.5378,280.5725,0.0013683,0.0002157,0.0,0 STARLINK-5052,1 53893U 22119H   23084.96608457  .00021570  00000-0  13683-2 0  9993,2 53893  53.2155 131.1447 0000978  79.5378 280.5725 15.08864742 28267,6917.805,95.436,540.346,538.993,0.0
53893.0,STARLINK-5052,PAYLOAD,2023-03-26 10:18:52,15.08823502,9.06e-05,53.2152,129.0634,93.6374,266.4722,0.00013343,1.836e-05,0.0,0 STARLINK-5052,1 53893U 22119H   23085.42977562  .00001836  00000-0  13343-3 0  9998,2 53893  53.2152 129.0634 0000906  93.6374 266.4722 15.08823502 28339,6917.931,95.439,540.423,539.169,0.0
53893.0,STARLINK-5052,PAYLOAD,2023-03-26 19:51:11,15.08830677,9.17e-05,53.2149,127.2791,91.7429,268.3668,9.685e-05,1.254e-05,0.0,0 STARLINK-5052,1 53893U 22119H   23085.82721679  .00001254  00000-0  96850-4 0  9997,2 53893  53.2149 127.2791 0000917  91.7429 268.3668 15.08830677 28815,6917.909,95.438,540.408,539.14,0.0
53893.0,STARLINK-5052,PAYLOAD,2023-03-27 03:48:07,15.08841565,9.54e-05,53.2155,125.7908,79.1135,280.9965,0.00044693,6.833e-05,0.0,0 STARLINK-5052,1 53893U 22119H   23086.15841755  .00006833  00000-0  44693-3 0  9997,2 53893  53.2155 125.7908 0000954  79.1135 280.9965 15.08841565 28447,6917.876,95.437,540.401,539.081,0.0
53893.0,STARLINK-5052,PAYLOAD,2023-03-27 10:09:39,15.08852215,0.0001177,53.2148,124.601,79.7952,280.3173,0.0013899,0.00021909,0.0,0 STARLINK-5052,1 53893U 22119H   23086.42337755  .00021909  00000-0  13899-2 0  9991,2 53893  53.2148 124.6010 0001177  79.7952 280.3173 15.08852215 28902,6917.843,95.437,540.522,538.894,0.0
53893.0,STARLINK-5052,PAYLOAD,2023-03-28 02:03:31,15.08851046,0.0001439,53.2154,121.629,83.6689,276.4467,0.0011325,0.00017787,0.0,0 STARLINK-5052,1 53893U 22119H   23087.08577836  .00017787  00000-0  11325-2 0  9991,2 53893  53.2154 121.6290 0001439  83.6689 276.4467 15.08851046 28585,6917.847,95.437,540.707,538.716,0.0
53893.0,STARLINK-5052,PAYLOAD,2023-03-28 08:25:03,15.08849797,0.0001248,53.2163,120.4374,86.4835,273.63,0.00054444,8.39e-05,0.0,0 STARLINK-5052,1 53893U 22119H   23087.35073702  .00008390  00000-0  54444-3 0  9994,2 53893  53.2163 120.4374 0001248  86.4835 273.6300 15.08849797 28627,6917.85,95.437,540.579,538.852,0.0
53893.0,STARLINK-5052,PAYLOAD,2023-03-29 01:54:18,15.08845423,0.00015,53.2164,117.1672,76.5371,283.5788,0.00035159,5.313e-05,0.0,0 STARLINK-5052,1 53893U 22119H   23088.07937827  .00005313  00000-0  35159-3 0  9995,2 53893  53.2164 117.1672 0001500  76.5371 283.5788 15.08845423 28732,6917.864,95.437,540.766,538.691,0.0
53893.0,STARLINK-5052,PAYLOAD,2023-03-29 08:15:50,15.0884879,0.0001406,53.2165,115.9773,85.4248,274.6905,0.00010412,1.37e-05,0.0,0 STARLINK-5052,1 53893U 22119H   23088.34433517  .00001370  00000-0  10412-3 0  9996,2 53893  53.2165 115.9773 0001406  85.4248 274.6905 15.08848790 29191,6917.854,95.437,540.691,538.746,0.0
